[{"OBJECT_NAME":"STARLINK-11365 [DTC]","OBJECT_ID":"2025-024H","EPOCH":"2026-03-09T14:03:29.021184","MEAN_MOTION":15.70871886,"ECCENTRICITY":0.0001911,"INCLINATION":42.9993,"RA_OF_ASC_NODE":181.7792,"ARG_OF_PERICENTER":281.1969,"MEAN_ANOMALY":78.8684,"EPHEMERIS_TYPE":0,"CLASSIFICATION_TYPE":"U","NORAD_CAT_ID":62886,"ELEMENT_SET_NO":999,"REV_AT_EPOCH":6345,"BSTAR":0.00057319,"MEAN_MOTION_DOT":0.00073856,"MEAN_MOTION_DDOT":0},{"OBJECT_NAME":"BREEZE-M DEB [TANK]","OBJECT_ID":"2013-056C","EPOCH":"2026-03-08T09:15:31.596768","MEAN_MOTION":5.32205998,"ECCENTRICITY":0.5163442,"INCLINATION":49.5172,"RA_OF_ASC_NODE":57.7358,"ARG_OF_PERICENTER":117.7382,"MEAN_ANOMALY":303.4762,"EPHEMERIS_TYPE":0,"CLASSIFICATION_TYPE":"U","NORAD_CAT_ID":39287,"ELEMENT_SET_NO":999,"REV_AT_EPOCH":23689,"BSTAR":0.00078948591,"MEAN_MOTION_DOT":3.118e-5,"MEAN_MOTION_DDOT":0}]
